IRIDIUM 36              
1 24967U 97056C   24135.48633450  .00001389  00000+0  46435-3 0  9998
2 24967  86.3966 340.4493 0002038  91.0989 269.0442 14.36786440394954
IRIDIUM 39              
1 25042U 97069D   24135.42312745  .00001396  00000+0  37054-3 0  9997
2 25042  86.3953  22.0003 0017598 190.2558 169.8289 14.47929085391236
IRIDIUM 38              
1 25043U 97069E   24135.43484887  .00001417  00000+0  46965-3 0  9991
2 25043  86.3992  40.8408 0002144  36.3731 323.7611 14.37242008388666
IRIDIUM 42              
1 25077U 97077A   24135.44773792  .00001376  00000+0  47136-3 0  9999
2 25077  86.3993  46.5149 0002220  68.9134 291.2300 14.35545175383974
IRIDIUM 44              
1 25078U 97077B   24135.42855718  .00001377  00000+0  43691-3 0  9990
2 25078  86.3992  29.5234 0000495 112.2434 247.8817 14.39376894386324
IRIDIUM 45              
1 25104U 97082A   24135.52822978  .00014577  00000+0  82566-3 0  9999
2 25104  86.3759 238.0337 0160394   2.6271 357.5765 15.02519395391808
IRIDIUM 24              
1 25105U 97082B   24135.55853509  .00001557  00000+0  47689-3 0  9998
2 25105  86.3917 249.0991 0009897 322.7543  37.2970 14.41154632385782
IRIDIUM 51              
1 25262U 98018A   24135.59663634  .00016665  00000+0  79163-3 0  9992
2 25262  86.3956 247.9182 0145581 306.7493  52.0449 15.10107391386341
