<?xml version="1.0" encoding="UTF-8"?>
<ndm xmlns:xsi="http://www.w3.org/2001/XMLSchema-instance" xsi:noNamespaceSchemaLocation="https://sanaregistry.org/r/ndmxml_unqualified/ndmxml-2.0.0-master-2.0.xsd">
<omm id="CCSDS_OMM_VERS" version="2.0">
<header><CREATION_DATE/><ORIGINATOR/></header><body><segment><metadata><OBJECT_NAME>IRIDIUM 36</OBJECT_NAME><OBJECT_ID>1997-056C</OBJECT_ID><CENTER_NAME>EARTH</CENTER_NAME><REF_FRAME>TEME</REF_FRAME><TIME_SYSTEM>UTC</TIME_SYSTEM><MEAN_ELEMENT_THEORY>SGP4</MEAN_ELEMENT_THEORY></metadata><data><meanElements><EPOCH>2024-05-14T11:40:19.300800</EPOCH><MEAN_MOTION>14.36786440</MEAN_MOTION><ECCENTRICITY>.0002038</ECCENTRICITY><INCLINATION>86.3966</INCLINATION><RA_OF_ASC_NODE>340.4493</RA_OF_ASC_NODE><ARG_OF_PERICENTER>91.0989</ARG_OF_PERICENTER><MEAN_ANOMALY>269.0442</MEAN_ANOMALY></meanElements><tleParameters><EPHEMERIS_TYPE>0</EPHEMERIS_TYPE><CLASSIFICATION_TYPE>U</CLASSIFICATION_TYPE><NORAD_CAT_ID>24967</NORAD_CAT_ID><ELEMENT_SET_NO>999</ELEMENT_SET_NO><REV_AT_EPOCH>39495</REV_AT_EPOCH><BSTAR>.46435E-3</BSTAR><MEAN_MOTION_DOT>.1389E-4</MEAN_MOTION_DOT><MEAN_MOTION_DDOT>0</MEAN_MOTION_DDOT></tleParameters></data></segment></body></omm>
<omm id="CCSDS_OMM_VERS" version="2.0">
<header><CREATION_DATE/><ORIGINATOR/></header><body><segment><metadata><OBJECT_NAME>IRIDIUM 39</OBJECT_NAME><OBJECT_ID>1997-069D</OBJECT_ID><CENTER_NAME>EARTH</CENTER_NAME><REF_FRAME>TEME</REF_FRAME><TIME_SYSTEM>UTC</TIME_SYSTEM><MEAN_ELEMENT_THEORY>SGP4</MEAN_ELEMENT_THEORY></metadata><data><meanElements><EPOCH>2024-05-14T10:09:18.211680</EPOCH><MEAN_MOTION>14.47929085</MEAN_MOTION><ECCENTRICITY>.0017598</ECCENTRICITY><INCLINATION>86.3953</INCLINATION><RA_OF_ASC_NODE>22.0003</RA_OF_ASC_NODE><ARG_OF_PERICENTER>190.2558</ARG_OF_PERICENTER><MEAN_ANOMALY>169.8289</MEAN_ANOMALY></meanElements><tleParameters><EPHEMERIS_TYPE>0</EPHEMERIS_TYPE><CLASSIFICATION_TYPE>U</CLASSIFICATION_TYPE><NORAD_CAT_ID>25042</NORAD_CAT_ID><ELEMENT_SET_NO>999</ELEMENT_SET_NO><REV_AT_EPOCH>39123</REV_AT_EPOCH><BSTAR>.37054E-3</BSTAR><MEAN_MOTION_DOT>.1396E-4</MEAN_MOTION_DOT><MEAN_MOTION_DDOT>0</MEAN_MOTION_DDOT></tleParameters></data></segment></body></omm>
<omm id="CCSDS_OMM_VERS" version="2.0">
<header><CREATION_DATE/><ORIGINATOR/></header><body><segment><metadata><OBJECT_NAME>IRIDIUM 38</OBJECT_NAME><OBJECT_ID>1997-069E</OBJECT_ID><CENTER_NAME>EARTH</CENTER_NAME><REF_FRAME>TEME</REF_FRAME><TIME_SYSTEM>UTC</TIME_SYSTEM><MEAN_ELEMENT_THEORY>SGP4</MEAN_ELEMENT_THEORY></metadata><data><meanElements><EPOCH>2024-05-14T10:26:10.942368</EPOCH><MEAN_MOTION>14.37242008</MEAN_MOTION><ECCENTRICITY>.0002144</ECCENTRICITY><INCLINATION>86.3992</INCLINATION><RA_OF_ASC_NODE>40.8408</RA_OF_ASC_NODE><ARG_OF_PERICENTER>36.3731</ARG_OF_PERICENTER><MEAN_ANOMALY>323.7611</MEAN_ANOMALY></meanElements><tleParameters><EPHEMERIS_TYPE>0</EPHEMERIS_TYPE><CLASSIFICATION_TYPE>U</CLASSIFICATION_TYPE><NORAD_CAT_ID>25043</NORAD_CAT_ID><ELEMENT_SET_NO>999</ELEMENT_SET_NO><REV_AT_EPOCH>38866</REV_AT_EPOCH><BSTAR>.46965E-3</BSTAR><MEAN_MOTION_DOT>.1417E-4</MEAN_MOTION_DOT><MEAN_MOTION_DDOT>0</MEAN_MOTION_DDOT></tleParameters></data></segment></body></omm>
<omm id="CCSDS_OMM_VERS" version="2.0">
<header><CREATION_DATE/><ORIGINATOR/></header><body><segment><metadata><OBJECT_NAME>IRIDIUM 42</OBJECT_NAME><OBJECT_ID>1997-077A</OBJECT_ID><CENTER_NAME>EARTH</CENTER_NAME><REF_FRAME>TEME</REF_FRAME><TIME_SYSTEM>UTC</TIME_SYSTEM><MEAN_ELEMENT_THEORY>SGP4</MEAN_ELEMENT_THEORY></metadata><data><meanElements><EPOCH>2024-05-14T10:44:44.556288</EPOCH><MEAN_MOTION>14.35545175</MEAN_MOTION><ECCENTRICITY>.000222</ECCENTRICITY><INCLINATION>86.3993</INCLINATION><RA_OF_ASC_NODE>46.5149</RA_OF_ASC_NODE><ARG_OF_PERICENTER>68.9134</ARG_OF_PERICENTER><MEAN_ANOMALY>291.2300</MEAN_ANOMALY></meanElements><tleParameters><EPHEMERIS_TYPE>0</EPHEMERIS_TYPE><CLASSIFICATION_TYPE>U</CLASSIFICATION_TYPE><NORAD_CAT_ID>25077</NORAD_CAT_ID><ELEMENT_SET_NO>999</ELEMENT_SET_NO><REV_AT_EPOCH>38397</REV_AT_EPOCH><BSTAR>.47136E-3</BSTAR><MEAN_MOTION_DOT>.1376E-4</MEAN_MOTION_DOT><MEAN_MOTION_DDOT>0</MEAN_MOTION_DDOT></tleParameters></data></segment></body></omm>
<omm id="CCSDS_OMM_VERS" version="2.0">
<header><CREATION_DATE/><ORIGINATOR/></header><body><segment><metadata><OBJECT_NAME>IRIDIUM 44</OBJECT_NAME><OBJECT_ID>1997-077B</OBJECT_ID><CENTER_NAME>EARTH</CENTER_NAME><REF_FRAME>TEME</REF_FRAME><TIME_SYSTEM>UTC</TIME_SYSTEM><MEAN_ELEMENT_THEORY>SGP4</MEAN_ELEMENT_THEORY></metadata><data><meanElements><EPOCH>2024-05-14T10:17:07.340352</EPOCH><MEAN_MOTION>14.39376894</MEAN_MOTION><ECCENTRICITY>.0000495</ECCENTRICITY><INCLINATION>86.3992</INCLINATION><RA_OF_ASC_NODE>29.5234</RA_OF_ASC_NODE><ARG_OF_PERICENTER>112.2434</ARG_OF_PERICENTER><MEAN_ANOMALY>247.8817</MEAN_ANOMALY></meanElements><tleParameters><EPHEMERIS_TYPE>0</EPHEMERIS_TYPE><CLASSIFICATION_TYPE>U</CLASSIFICATION_TYPE><NORAD_CAT_ID>25078</NORAD_CAT_ID><ELEMENT_SET_NO>999</ELEMENT_SET_NO><REV_AT_EPOCH>38632</REV_AT_EPOCH><BSTAR>.43691E-3</BSTAR><MEAN_MOTION_DOT>.1377E-4</MEAN_MOTION_DOT><MEAN_MOTION_DDOT>0</MEAN_MOTION_DDOT></tleParameters></data></segment></body></omm>
<omm id="CCSDS_OMM_VERS" version="2.0">
<header><CREATION_DATE/><ORIGINATOR/></header><body><segment><metadata><OBJECT_NAME>IRIDIUM 45</OBJECT_NAME><OBJECT_ID>1997-082A</OBJECT_ID><CENTER_NAME>EARTH</CENTER_NAME><REF_FRAME>TEME</REF_FRAME><TIME_SYSTEM>UTC</TIME_SYSTEM><MEAN_ELEMENT_THEORY>SGP4</MEAN_ELEMENT_THEORY></metadata><data><meanElements><EPOCH>2024-05-14T12:40:39.052992</EPOCH><MEAN_MOTION>15.02519395</MEAN_MOTION><ECCENTRICITY>.0160394</ECCENTRICITY><INCLINATION>86.3759</INCLINATION><RA_OF_ASC_NODE>238.0337</RA_OF_ASC_NODE><ARG_OF_PERICENTER>2.6271</ARG_OF_PERICENTER><MEAN_ANOMALY>357.5765</MEAN_ANOMALY></meanElements><tleParameters><EPHEMERIS_TYPE>0</EPHEMERIS_TYPE><CLASSIFICATION_TYPE>U</CLASSIFICATION_TYPE><NORAD_CAT_ID>25104</NORAD_CAT_ID><ELEMENT_SET_NO>999</ELEMENT_SET_NO><REV_AT_EPOCH>39180</REV_AT_EPOCH><BSTAR>.82566E-3</BSTAR><MEAN_MOTION_DOT>.14577E-3</MEAN_MOTION_DOT><MEAN_MOTION_DDOT>0</MEAN_MOTION_DDOT></tleParameters></data></segment></body></omm>
<omm id="CCSDS_OMM_VERS" version="2.0">
<header><CREATION_DATE/><ORIGINATOR/></header><body><segment><metadata><OBJECT_NAME>IRIDIUM 24</OBJECT_NAME><OBJECT_ID>1997-082B</OBJECT_ID><CENTER_NAME>EARTH</CENTER_NAME><REF_FRAME>TEME</REF_FRAME><TIME_SYSTEM>UTC</TIME_SYSTEM><MEAN_ELEMENT_THEORY>SGP4</MEAN_ELEMENT_THEORY></metadata><data><meanElements><EPOCH>2024-05-14T13:24:17.431776</EPOCH><MEAN_MOTION>14.41154632</MEAN_MOTION><ECCENTRICITY>.0009897</ECCENTRICITY><INCLINATION>86.3917</INCLINATION><RA_OF_ASC_NODE>249.0991</RA_OF_ASC_NODE><ARG_OF_PERICENTER>322.7543</ARG_OF_PERICENTER><MEAN_ANOMALY>37.2970</MEAN_ANOMALY></meanElements><tleParameters><EPHEMERIS_TYPE>0</EPHEMERIS_TYPE><CLASSIFICATION_TYPE>U</CLASSIFICATION_TYPE><NORAD_CAT_ID>25105</NORAD_CAT_ID><ELEMENT_SET_NO>999</ELEMENT_SET_NO><REV_AT_EPOCH>38578</REV_AT_EPOCH><BSTAR>.47689E-3</BSTAR><MEAN_MOTION_DOT>.1557E-4</MEAN_MOTION_DOT><MEAN_MOTION_DDOT>0</MEAN_MOTION_DDOT></tleParameters></data></segment></body></omm>
<omm id="CCSDS_OMM_VERS" version="2.0">
<header><CREATION_DATE/><ORIGINATOR/></header><body><segment><metadata><OBJECT_NAME>IRIDIUM 51</OBJECT_NAME><OBJECT_ID>1998-018A</OBJECT_ID><CENTER_NAME>EARTH</CENTER_NAME><REF_FRAME>TEME</REF_FRAME><TIME_SYSTEM>UTC</TIME_SYSTEM><MEAN_ELEMENT_THEORY>SGP4</MEAN_ELEMENT_THEORY></metadata><data><meanElements><EPOCH>2024-05-14T14:19:09.379776</EPOCH><MEAN_MOTION>15.10107391</MEAN_MOTION><ECCENTRICITY>.0145581</ECCENTRICITY><INCLINATION>86.3956</INCLINATION><RA_OF_ASC_NODE>247.9182</RA_OF_ASC_NODE><ARG_OF_PERICENTER>306.7493</ARG_OF_PERICENTER><MEAN_ANOMALY>52.0449</MEAN_ANOMALY></meanElements><tleParameters><EPHEMERIS_TYPE>0</EPHEMERIS_TYPE><CLASSIFICATION_TYPE>U</CLASSIFICATION_TYPE><NORAD_CAT_ID>25262</NORAD_CAT_ID><ELEMENT_SET_NO>999</ELEMENT_SET_NO><REV_AT_EPOCH>38634</REV_AT_EPOCH><BSTAR>.79163E-3</BSTAR><MEAN_MOTION_DOT>.16665E-3</MEAN_MOTION_DOT><MEAN_MOTION_DDOT>0</MEAN_MOTION_DDOT></tleParameters></data></segment></body></omm>

</ndm>
